H1 CPF  1  DGF 2022 02 28 11  5591 larets     NONE      
H2   304206 5557    27944 2022 02 28 00 00 00 2022 03 07 00 00 00    30 1 1  0 0 0
H5  0.0650
H9
10 0 59638      0.000000  0      -5319151.501      -2508720.831      -3909889.196
10 0 59638     30.000000  0      -5226935.342      -2408683.533      -4092725.250
10 0 59638     60.000000  0      -5128983.480      -2306622.797      -4271385.708
10 0 59638     90.000000  0      -5025387.380      -2202667.259      -4445688.982
10 0 59638    120.000000  0      -4916244.775      -2096947.036      -4615458.005
10 0 59638    150.000000  0      -4801659.563      -1989593.562      -4780520.399
10 0 59638    180.000000  0      -4681741.700      -1880739.426      -4940708.656
10 0 59638    210.000000  0      -4556607.087      -1770518.209      -5095860.300
10 0 59638    240.000000  0      -4426377.452      -1659064.315      -5245818.047
10 0 59638    270.000000  0      -4291180.218      -1546512.816      -5390429.960
10 0 59638    300.000000  0      -4151148.378      -1432999.280      -5529549.596
10 0 59638    330.000000  0      -4006420.352      -1318659.614      -5663036.147
10 0 59638    360.000000  0      -3857139.847      -1203629.902      -5790754.579
10 0 59638    390.000000  0      -3703455.706      -1088046.242      -5912575.759
10 0 59638    420.000000  0      -3545521.755       -972044.585      -6028376.580
10 0 59638    450.000000  0      -3383496.646       -855760.579      -6138040.079
10 0 59638    480.000000  0      -3217543.688       -739329.411      -6241455.543
10 0 59638    510.000000  0      -3047830.682       -622885.649      -6338518.620
10 0 59638    540.000000  0      -2874529.747       -506563.093      -6429131.413
10 0 59638    570.000000  0      -2697817.142       -390494.620      -6513202.574
10 0 59638    600.000000  0      -2517873.079       -274812.035      -6590647.388
10 0 59638    630.000000  0      -2334881.542       -159645.925      -6661387.849
10 0 59638    660.000000  0      -2149030.089        -45125.513      -6725352.732
10 0 59638    690.000000  0      -1960509.671         68621.483      -6782477.651
10 0 59638    720.000000  0      -1769514.428        181468.986      -6832705.125
10 0 59638    750.000000  0      -1576241.500        293292.699      -6875984.630
10 0 59638    780.000000  0      -1380890.818        403970.244      -6912272.646
10 0 59638    810.000000  0      -1183664.901        513381.289      -6941532.698
10 0 59638    840.000000  0       -984768.643        621407.684      -6963735.391
10 0 59638    870.000000  0       -784409.109        727933.583      -6978858.427
10 0 59638    900.000000  0       -582795.316        832845.567      -6986886.631
10 0 59638    930.000000  0       -380138.023        936032.761      -6987811.958
10 0 59638    960.000000  0       -176649.516       1037386.947      -6981633.505
10 0 59638    990.000000  0         27456.610       1136802.675      -6968357.516
10 0 59638   1020.000000  0        231965.672       1234177.371      -6947997.380
10 0 59638   1050.000000  0        436662.124       1329411.444      -6920573.624
10 0 59638   1080.000000  0        641329.788       1422408.392      -6886113.897
10 0 59638   1110.000000  0        845752.084       1513074.897      -6844652.939
10 0 59638   1140.000000  0       1049712.253       1601320.920      -6796232.542
10 0 59638   1170.000000  0       1252993.586       1687059.789      -6740901.513
10 0 59638   1200.000000  0       1455379.647       1770208.284      -6678715.629
10 0 59638   1230.000000  0       1656654.501       1850686.716      -6609737.591
10 0 59638   1260.000000  0       1856602.952       1928419.009      -6534036.966
10 0 59638   1290.000000  0       2055010.768       2003332.768      -6451690.119
10 0 59638   1320.000000  0       2251664.919       2075359.353      -6362780.143
10 0 59638   1350.000000  0       2446353.797       2144433.937      -6267396.769
10 0 59638   1380.000000  0       2638867.443       2210495.563      -6165636.292
10 0 59638   1410.000000  0       2828997.773       2273487.202      -6057601.471
10 0 59638   1440.000000  0       3016538.801       2333355.801      -5943401.444
10 0 59638   1470.000000  0       3201286.867       2390052.328      -5823151.618
10 0 59638   1500.000000  0       3383040.856       2443531.812      -5696973.565
10 0 59638   1530.000000  0       3561602.427       2493753.381      -5564994.908
10 0 59638   1560.000000  0       3736776.228       2540680.293      -5427349.197
10 0 59638   1590.000000  0       3908370.122       2584279.962      -5284175.779
10 0 59638   1620.000000  0       4076195.393       2624523.982      -5135619.661
10 0 59638   1650.000000  0       4240066.967       2661388.139      -4981831.376
10 0 59638   1680.000000  0       4399803.616       2694852.426      -4822966.828
10 0 59638   1710.000000  0       4555228.171       2724901.045      -4659187.141
10 0 59638   1740.000000  0       4706167.718       2751522.410      -4490658.500
10 0 59638   1770.000000  0       4852453.797       2774709.141      -4317551.983
10 0 59638   1800.000000  0       4993922.596       2794458.062      -4140043.394
10 0 59638   1830.000000  0       5130415.140       2810770.176      -3958313.088
10 0 59638   1860.000000  0       5261777.479       2823650.656      -3772545.786
10 0 59638   1890.000000  0       5387860.858       2833108.810      -3582930.396
10 0 59638   1920.000000  0       5508521.902       2839158.062      -3389659.829
10 0 59638   1950.000000  0       5623622.786       2841815.920      -3192930.798
10 0 59638   1980.000000  0       5733031.409       2841103.930      -2992943.623
10 0 59638   2010.000000  0       5836621.548       2837047.640      -2789902.016
10 0 59638   2040.000000  0       5934273.012       2829676.545      -2584012.872
10 0 59638   2070.000000  0       6025871.782       2819024.030      -2375486.053
10 0 59638   2100.000000  0       6111310.150       2805127.317      -2164534.180
10 0 59638   2130.000000  0       6190486.854       2788027.396      -1951372.405
10 0 59638   2160.000000  0       6263307.200       2767768.961      -1736218.193
10 0 59638   2190.000000  0       6329683.181       2744400.333      -1519291.097
10 0 59638   2220.000000  0       6389533.590       2717973.387      -1300812.528
10 0 59638   2250.000000  0       6442784.122       2688543.468      -1081005.525
10 0 59638   2280.000000  0       6489367.472       2656169.309       -860094.520
10 0 59638   2310.000000  0       6529223.421       2620912.936       -638305.096
10 0 59638   2340.000000  0       6562298.913       2582839.576       -415863.754
10 0 59638   2370.000000  0       6588548.121       2542017.552       -192997.671
10 0 59638   2400.000000  0       6607932.506       2498518.186         30065.537
10 0 59638   2430.000000  0       6620420.868       2452415.687        253098.050
10 0 59638   2460.000000  0       6625989.388       2403787.046        475872.078
10 0 59638   2490.000000  0       6624621.674       2352711.927        698160.098
10 0 59638   2520.000000  0       6616308.784       2299272.552        919735.093
10 0 59638   2550.000000  0       6601049.256       2243553.586       1140370.794
10 0 59638   2580.000000  0       6578849.110       2185642.017       1359841.918
10 0 59638   2610.000000  0       6549721.856       2125627.031       1577924.408
10 0 59638   2640.000000  0       6513688.482       2063599.882       1794395.669
10 0 59638   2670.000000  0       6470777.436       1999653.770       2009034.800
10 0 59638   2700.000000  0       6421024.601       1933883.701       2221622.822
10 0 59638   2730.000000  0       6364473.260       1866386.364       2431942.911
10 0 59638   2760.000000  0       6301174.050       1797259.995       2639780.615
10 0 59638   2790.000000  0       6231184.921       1726604.241       2844924.079
10 0 59638   2820.000000  0       6154571.074       1654520.029       3047164.267
10 0 59638   2850.000000  0       6071404.889       1581109.426       3246295.180
10 0 59638   2880.000000  0       5981765.853       1506475.499       3442114.065
10 0 59638   2910.000000  0       5885740.469       1430722.182       3634421.624
10 0 59638   2940.000000  0       5783422.167       1353954.131       3823022.219
10 0 59638   2970.000000  0       5674911.201       1276276.588       4007724.064
10 0 59638   3000.000000  0       5560314.543       1197795.243       4188339.418
10 0 59638   3030.000000  0       5439745.769       1118616.098       4364684.773
10 0 59638   3060.000000  0       5313324.945       1038845.332       4536581.036
10 0 59638   3090.000000  0       5181178.497        958589.160       4703853.714
10 0 59638   3120.000000  0       5043439.080        877953.698       4866333.087
10 0 59638   3150.000000  0       4900245.430        797044.826       5023854.380
10 0 59638   3180.000000  0       4751742.217        715968.052       5176257.923
10 0 59638   3210.000000  0       4598079.892        634828.384       5323389.310
10 0 59638   3240.000000  0       4439414.525        553730.190       5465099.551
10 0 59638   3270.000000  0       4275907.638        472777.074       5601245.215
10 0 59638   3300.000000  0       4107726.028        392071.742       5731688.570
10 0 59638   3330.000000  0       3935041.595        311715.884       5856297.710
10 0 59638   3360.000000  0       3758031.155        231810.045       5974946.680
10 0 59638   3390.000000  0       3576876.264        152453.510       6087515.594
10 0 59638   3420.000000  0       3391763.022         73744.185       6193890.751
10 0 59638   3450.000000  0       3202881.884         -4221.527       6293964.744
10 0 59638   3480.000000  0       3010427.460        -81348.830       6387636.565
10 0 59638   3510.000000  0       2814598.309       -157544.656       6474811.692
10 0 59638   3540.000000  0       2615596.739       -232717.769       6555402.190
10 0 59638   3570.000000  0       2413628.589       -306778.868       6629326.781
99
